{"fetched_at":"2026-07-17T17:37:56.755Z","source":"https://celestrak.org/NORAD/elements/gp.php?GROUP=qianfan&FORMAT=JSON","constellation":"qianfan","records":[{"OBJECT_NAME":"QIANFAN-17","OBJECT_ID":"2024-140S","EPOCH":"2026-07-17T07:04:12.184608","CLASSIFICATION_TYPE":"U","MEAN_MOTION":13.5101662,"ECCENTRICITY":0.00127676,"INCLINATION":88.9744,"RA_OF_ASC_NODE":276.9893,"ARG_OF_PERICENTER":304.0323,"MEAN_ANOMALY":55.9615,"EPHEMERIS_TYPE":0,"NORAD_CAT_ID":60395,"ELEMENT_SET_NO":999,"REV_AT_EPOCH":9737,"BSTAR":0.00013893699,"MEAN_MOTION_DOT":0.00000102,"MEAN_MOTION_DDOT":0},{"OBJECT_NAME":"QIANFAN-18","OBJECT_ID":"2024-140T","EPOCH":"2026-07-17T06:34:32.672064","CLASSIFICATION_TYPE":"U","MEAN_MOTION":13.51016027,"ECCENTRICITY":0.00119095,"INCLINATION":88.9737,"RA_OF_ASC_NODE":276.5107,"ARG_OF_PERICENTER":283.6371,"MEAN_ANOMALY":76.3454,"EPHEMERIS_TYPE":0,"NORAD_CAT_ID":60396,"ELEMENT_SET_NO":999,"REV_AT_EPOCH":9676,"BSTAR":0.0001302337,"MEAN_MOTION_DOT":9.6e-7,"MEAN_MOTION_DDOT":0},{"OBJECT_NAME":"QIANFAN-19","OBJECT_ID":"2024-185A","EPOCH":"2026-07-17T04:59:49.248960","CLASSIFICATION_TYPE":"U","MEAN_MOTION":14.1449499,"ECCENTRICITY":0.00061726,"INCLINATION":88.9812,"RA_OF_ASC_NODE":53.1381,"ARG_OF_PERICENTER":349.2352,"MEAN_ANOMALY":10.8702,"EPHEMERIS_TYPE":0,"NORAD_CAT_ID":61552,"ELEMENT_SET_NO":999,"REV_AT_EPOCH":10026,"BSTAR":0.00010669571,"MEAN_MOTION_DOT":0.00000219,"MEAN_MOTION_DDOT":0},{"OBJECT_NAME":"QIANFAN-20","OBJECT_ID":"2024-185B","EPOCH":"2026-07-17T05:25:08.305248","CLASSIFICATION_TYPE":"U","MEAN_MOTION":14.0903676,"ECCENTRICITY":0.00066886,"INCLINATION":88.9808,"RA_OF_ASC_NODE":53.6746,"ARG_OF_PERICENTER":33.2717,"MEAN_ANOMALY":326.8886,"EPHEMERIS_TYPE":0,"NORAD_CAT_ID":61553,"ELEMENT_SET_NO":999,"REV_AT_EPOCH":9997,"BSTAR":0.00011487397,"MEAN_MOTION_DOT":0.00000213,"MEAN_MOTION_DDOT":0},{"OBJECT_NAME":"QIANFAN-21","OBJECT_ID":"2024-185C","EPOCH":"2026-07-17T05:29:35.229408","CLASSIFICATION_TYPE":"U","MEAN_MOTION":14.22882448,"ECCENTRICITY":0.00117044,"INCLINATION":88.9729,"RA_OF_ASC_NODE":51.6255,"ARG_OF_PERICENTER":29.221,"MEAN_ANOMALY":330.9634,"EPHEMERIS_TYPE":0,"NORAD_CAT_ID":61554,"ELEMENT_SET_NO":999,"REV_AT_EPOCH":10075,"BSTAR":0.00011904139,"MEAN_MOTION_DOT":0.00000282,"MEAN_MOTION_DDOT":0},{"OBJECT_NAME":"QIANFAN-22","OBJECT_ID":"2024-185D","EPOCH":"2026-07-17T05:53:50.264160","CLASSIFICATION_TYPE":"U","MEAN_MOTION":13.86408033,"ECCENTRICITY":0.00084004,"INCLINATION":88.9793,"RA_OF_ASC_NODE":55.5277,"ARG_OF_PERICENTER":61.3986,"MEAN_ANOMALY":298.8029,"EPHEMERIS_TYPE":0,"NORAD_CAT_ID":61555,"ELEMENT_SET_NO":999,"REV_AT_EPOCH":9893,"BSTAR":0.00010382152,"MEAN_MOTION_DOT":0.00000134,"MEAN_MOTION_DDOT":0},{"OBJECT_NAME":"QIANFAN-23","OBJECT_ID":"2024-185E","EPOCH":"2026-07-17T05:30:45.839808","CLASSIFICATION_TYPE":"U","MEAN_MOTION":14.16519127,"ECCENTRICITY":0.0007117,"INCLINATION":88.9805,"RA_OF_ASC_NODE":52.8436,"ARG_OF_PERICENTER":357.2919,"MEAN_ANOMALY":2.8229,"EPHEMERIS_TYPE":0,"NORAD_CAT_ID":61556,"ELEMENT_SET_NO":999,"REV_AT_EPOCH":10039,"BSTAR":0.000098345214,"MEAN_MOTION_DOT":0.0000021,"MEAN_MOTION_DDOT":0},{"OBJECT_NAME":"QIANFAN-24","OBJECT_ID":"2024-185F","EPOCH":"2026-07-17T06:12:44.244288","CLASSIFICATION_TYPE":"U","MEAN_MOTION":14.2409962,"ECCENTRICITY":0.0007932,"INCLINATION":88.9786,"RA_OF_ASC_NODE":51.8933,"ARG_OF_PERICENTER":324.5079,"MEAN_ANOMALY":35.5585,"EPHEMERIS_TYPE":0,"NORAD_CAT_ID":61557,"ELEMENT_SET_NO":999,"REV_AT_EPOCH":10083,"BSTAR":0.00012245376,"MEAN_MOTION_DOT":0.00000296,"MEAN_MOTION_DDOT":0},{"OBJECT_NAME":"QIANFAN-25","OBJECT_ID":"2024-185G","EPOCH":"2026-07-17T06:52:25.722912","CLASSIFICATION_TYPE":"U","MEAN_MOTION":14.06096131,"ECCENTRICITY":0.00125994,"INCLINATION":88.9801,"RA_OF_ASC_NODE":53.6849,"ARG_OF_PERICENTER":28.2383,"MEAN_ANOMALY":331.948,"EPHEMERIS_TYPE":0,"NORAD_CAT_ID":61558,"ELEMENT_SET_NO":999,"REV_AT_EPOCH":9993,"BSTAR":0.00010345835,"MEAN_MOTION_DOT":0.00000184,"MEAN_MOTION_DDOT":0},{"OBJECT_NAME":"QIANFAN-26","OBJECT_ID":"2024-185H","EPOCH":"2026-07-17T05:29:07.231488","CLASSIFICATION_TYPE":"U","MEAN_MOTION":13.77924398,"ECCENTRICITY":0.00078932,"INCLINATION":88.98,"RA_OF_ASC_NODE":56.3856,"ARG_OF_PERICENTER":79.1594,"MEAN_ANOMALY":281.046,"EPHEMERIS_TYPE":0,"NORAD_CAT_ID":61559,"ELEMENT_SET_NO":999,"REV_AT_EPOCH":9848,"BSTAR":0.00012779808,"MEAN_MOTION_DOT":0.00000141,"MEAN_MOTION_DDOT":0},{"OBJECT_NAME":"QIANFAN-27","OBJECT_ID":"2024-185J","EPOCH":"2026-07-17T06:50:31.591968","CLASSIFICATION_TYPE":"U","MEAN_MOTION":14.27557449,"ECCENTRICITY":0.00054265,"INCLINATION":88.9798,"RA_OF_ASC_NODE":51.5611,"ARG_OF_PERICENTER":312.7272,"MEAN_ANOMALY":47.3465,"EPHEMERIS_TYPE":0,"NORAD_CAT_ID":61560,"ELEMENT_SET_NO":999,"REV_AT_EPOCH":10105,"BSTAR":0.000068812856,"MEAN_MOTION_DOT":0.00000184,"MEAN_MOTION_DDOT":0},{"OBJECT_NAME":"QIANFAN-28","OBJECT_ID":"2024-185K","EPOCH":"2026-07-17T06:54:25.742880","CLASSIFICATION_TYPE":"U","MEAN_MOTION":14.28420056,"ECCENTRICITY":0.00052342,"INCLINATION":88.9816,"RA_OF_ASC_NODE":51.5742,"ARG_OF_PERICENTER":310.4991,"MEAN_ANOMALY":49.5747,"EPHEMERIS_TYPE":0,"NORAD_CAT_ID":61561,"ELEMENT_SET_NO":999,"REV_AT_EPOCH":10108,"BSTAR":0.00012066932,"MEAN_MOTION_DOT":0.00000316,"MEAN_MOTION_DDOT":0},{"OBJECT_NAME":"QIANFAN-29","OBJECT_ID":"2024-185L","EPOCH":"2026-07-17T07:00:21.788640","CLASSIFICATION_TYPE":"U","MEAN_MOTION":13.51079065,"ECCENTRICITY":0.00110478,"INCLINATION":88.9773,"RA_OF_ASC_NODE":58.929,"ARG_OF_PERICENTER":135.789,"MEAN_ANOMALY":224.4146,"EPHEMERIS_TYPE":0,"NORAD_CAT_ID":61562,"ELEMENT_SET_NO":999,"REV_AT_EPOCH":9703,"BSTAR":0.00012233417,"MEAN_MOTION_DOT":9.1e-7,"MEAN_MOTION_DDOT":0},{"OBJECT_NAME":"QIANFAN-30","OBJECT_ID":"2024-185M","EPOCH":"2026-07-17T06:47:00.674880","CLASSIFICATION_TYPE":"U","MEAN_MOTION":13.50061413,"ECCENTRICITY":0.00090187,"INCLINATION":88.9793,"RA_OF_ASC_NODE":58.5381,"ARG_OF_PERICENTER":121.8473,"MEAN_ANOMALY":238.3557,"EPHEMERIS_TYPE":0,"NORAD_CAT_ID":61563,"ELEMENT_SET_NO":999,"REV_AT_EPOCH":9728,"BSTAR":4.55575e-7,"MEAN_MOTION_DOT":1.2e-7,"MEAN_MOTION_DDOT":0},{"OBJECT_NAME":"QIANFAN-31","OBJECT_ID":"2024-185N","EPOCH":"2026-07-17T05:33:22.559904","CLASSIFICATION_TYPE":"U","MEAN_MOTION":13.58047285,"ECCENTRICITY":0.00088166,"INCLINATION":88.9777,"RA_OF_ASC_NODE":58.0016,"ARG_OF_PERICENTER":110.1197,"MEAN_ANOMALY":250.0907,"EPHEMERIS_TYPE":0,"NORAD_CAT_ID":61564,"ELEMENT_SET_NO":999,"REV_AT_EPOCH":9754,"BSTAR":0.00013127815,"MEAN_MOTION_DOT":0.00000107,"MEAN_MOTION_DDOT":0},{"OBJECT_NAME":"QIANFAN-32","OBJECT_ID":"2024-185P","EPOCH":"2026-07-17T04:57:07.795872","CLASSIFICATION_TYPE":"U","MEAN_MOTION":13.5079291,"ECCENTRICITY":0.0010295,"INCLINATION":88.9834,"RA_OF_ASC_NODE":58.7447,"ARG_OF_PERICENTER":150.1987,"MEAN_ANOMALY":209.9752,"EPHEMERIS_TYPE":0,"NORAD_CAT_ID":61565,"ELEMENT_SET_NO":999,"REV_AT_EPOCH":9726,"BSTAR":0.00014224843,"MEAN_MOTION_DOT":0.00000104,"MEAN_MOTION_DDOT":0}]}
