QIANFAN-17              
1 60395U 24140S   26198.29458547  .00000102  00000+0  13894-3 0  9994
2 60395  88.9744 276.9893 0012767 304.0323  55.9615 13.51016620 97379
QIANFAN-18              
1 60396U 24140T   26198.27398926  .00000096  00000+0  13023-3 0  9993
2 60396  88.9737 276.5107 0011909 283.6371  76.3454 13.51016027 96769
QIANFAN-19              
1 61552U 24185A   26198.20820890  .00000219  00000+0  10670-3 0  9992
2 61552  88.9812  53.1381 0006172 349.2352  10.8702 14.14494990100264
QIANFAN-20              
1 61553U 24185B   26198.22579057  .00000213  00000+0  11487-3 0  9992
2 61553  88.9808  53.6746 0006688  33.2717 326.8886 14.09036760 99976
QIANFAN-21              
1 61554U 24185C   26198.22887997  .00000282  00000+0  11904-3 0  9998
2 61554  88.9729  51.6255 0011704  29.2210 330.9634 14.22882448100753
QIANFAN-22              
1 61555U 24185D   26198.24572065  .00000134  00000+0  10382-3 0  9993
2 61555  88.9793  55.5277 0008400  61.3986 298.8029 13.86408033 98937
QIANFAN-23              
1 61556U 24185E   26198.22969722  .00000210  00000+0  98345-4 0  9993
2 61556  88.9805  52.8436 0007117 357.2919   2.8229 14.16519127100396
QIANFAN-24              
1 61557U 24185F   26198.25884542  .00000296  00000+0  12245-3 0  9991
2 61557  88.9786  51.8933 0007932 324.5079  35.5585 14.24099620100832
QIANFAN-25              
1 61558U 24185G   26198.28640883  .00000184  00000+0  10346-3 0  9999
2 61558  88.9801  53.6849 0012599  28.2383 331.9480 14.06096131 99937
QIANFAN-26              
1 61559U 24185H   26198.22855592  .00000141  00000+0  12780-3 0  9996
2 61559  88.9800  56.3856 0007893  79.1594 281.0460 13.77924398 98489
QIANFAN-27              
1 61560U 24185J   26198.28508787  .00000184  00000+0  68813-4 0  9991
2 61560  88.9798  51.5611 0005426 312.7272  47.3465 14.27557449101053
QIANFAN-28              
1 61561U 24185K   26198.28779795  .00000316  00000+0  12067-3 0  9997
2 61561  88.9816  51.5742 0005234 310.4991  49.5747 14.28420056101084
QIANFAN-29              
1 61562U 24185L   26198.29191885  .00000091  00000+0  12233-3 0  9992
2 61562  88.9773  58.9290 0011047 135.7890 224.4146 13.51079065 97032
QIANFAN-30              
1 61563U 24185M   26198.28264670  .00000012  00000+0  45557-6 0  9996
2 61563  88.9793  58.5381 0009018 121.8473 238.3557 13.50061413 97284
QIANFAN-31              
1 61564U 24185N   26198.23151111  .00000107  00000+0  13128-3 0  9998
2 61564  88.9777  58.0016 0008816 110.1197 250.0907 13.58047285 97544
QIANFAN-32              
1 61565U 24185P   26198.20634023  .00000104  00000+0  14225-3 0  9990
2 61565  88.9834  58.7447 0010295 150.1987 209.9752 13.50792910 97263
